ERS-1                   
1 21574U 91050A   26084.75431696  .00000307  00000+0  11282-3 0  9991
2 21574  98.7870 103.3921 0032534 152.9244 207.3649 14.39461062818041
ARIANE 40 R/B           
1 21610U 91050F   26084.76704921  .00000298  00000+0  10158-3 0  9997
2 21610  98.1979 136.3976 0003718  45.3729 314.7765 14.42904917821318
INTERCOSMOS 25          
1 21819U 91086A   26084.83712514  .00001368  00000+0  26090-3 0  9993
2 21819  82.6020 300.2469 1486646  82.1416 294.5245 12.12053160498645
SL-8 R/B                
1 21876U 92008B   26084.70951112  .00000011  00000+0 -45927-5 0  9993
2 21876  82.9225 255.8579 0035922  90.0905 281.3233 13.75969581711622
SL-8 R/B                
1 21938U 92020B   26084.78326479  .00000027  00000+0  12189-4 0  9995
2 21938  82.9310 141.8130 0027668 251.7247 246.9963 13.75550435703347
USA 81                  
1 21949U 92023A   26084.79590961  .00000162  00000+0  52529-4 0  9992
2 21949  85.0053 122.1468 0001921  68.4965 291.6432 14.32372997 97092
COSMOS 2219             
1 22219U 92076A   26084.72000347 -.00000220  00000+0 -90875-4 0  9991
2 22219  71.0630 344.5611 0018065 183.8590 176.2397 14.14091895720649
SL-16 R/B               
1 22220U 92076B   26084.50123550  .00000078  00000+0  62587-4 0  9999
2 22220  71.0003 155.0699 0010642  66.7709 305.0722 14.16863713724073
COSMOS 2221             
1 22236U 92080A   26084.75457797  .00002086  00000+0  18215-3 0  9990
2 22236  82.5007 263.6876 0015343 134.9103 225.3367 14.96263975783192
SL-16 R/B               
1 22285U 92093B   26084.42827111  .00000316  00000+0  18634-3 0  9992
2 22285  71.0234 331.2290 0006389 278.2176  81.8222 14.15452517715389
COSMOS 2228             
1 22286U 92094A   26084.82704072  .00002067  00000+0  17573-3 0  9994
2 22286  82.5182 221.8586 0016695 245.5329 114.4152 14.97269488778476
SL-16 R/B               
1 22566U 93016B   26084.54091827 -.00000164  00000+0 -59640-4 0  9996
2 22566  71.0079 181.8912 0012347 293.6094  66.3732 14.15305605704410
