CCSDS_OMM_VERS = 2.0
CREATION_DATE  = 
ORIGINATOR     = 

OBJECT_NAME    = ERS-1
OBJECT_ID      = 1991-050A
CENTER_NAME    = EARTH
REF_FRAME      = TEME
TIME_SYSTEM    = UTC
MEAN_ELEMENT_THEORY = SGP/SGP4

EPOCH          = 2026-03-25T18:06:12.985344
MEAN_MOTION    = 14.39461062
ECCENTRICITY   = .0032534
INCLINATION    = 98.7870
RA_OF_ASC_NODE = 103.3921
ARG_OF_PERICENTER = 152.9244
MEAN_ANOMALY   = 207.3649

EPHEMERIS_TYPE = 0
CLASSIFICATION_TYPE = U
NORAD_CAT_ID   = 21574
ELEMENT_SET_NO = 999
REV_AT_EPOCH   = 81804
BSTAR          = .11282E-3
MEAN_MOTION_DOT = .307E-5
MEAN_MOTION_DDOT = 0

CCSDS_OMM_VERS = 2.0
CREATION_DATE  = 
ORIGINATOR     = 

OBJECT_NAME    = ARIANE 40 R/B
OBJECT_ID      = 1991-050F
CENTER_NAME    = EARTH
REF_FRAME      = TEME
TIME_SYSTEM    = UTC
MEAN_ELEMENT_THEORY = SGP/SGP4

EPOCH          = 2026-03-25T18:24:33.051744
MEAN_MOTION    = 14.42904917
ECCENTRICITY   = .0003718
INCLINATION    = 98.1979
RA_OF_ASC_NODE = 136.3976
ARG_OF_PERICENTER = 45.3729
MEAN_ANOMALY   = 314.7765

EPHEMERIS_TYPE = 0
CLASSIFICATION_TYPE = U
NORAD_CAT_ID   = 21610
ELEMENT_SET_NO = 999
REV_AT_EPOCH   = 82131
BSTAR          = .10158E-3
MEAN_MOTION_DOT = .298E-5
MEAN_MOTION_DDOT = 0

CCSDS_OMM_VERS = 2.0
CREATION_DATE  = 
ORIGINATOR     = 

OBJECT_NAME    = INTERCOSMOS 25
OBJECT_ID      = 1991-086A
CENTER_NAME    = EARTH
REF_FRAME      = TEME
TIME_SYSTEM    = UTC
MEAN_ELEMENT_THEORY = SGP/SGP4

EPOCH          = 2026-03-25T20:05:27.612096
MEAN_MOTION    = 12.12053160
ECCENTRICITY   = .1486646
INCLINATION    = 82.6020
RA_OF_ASC_NODE = 300.2469
ARG_OF_PERICENTER = 82.1416
MEAN_ANOMALY   = 294.5245

EPHEMERIS_TYPE = 0
CLASSIFICATION_TYPE = U
NORAD_CAT_ID   = 21819
ELEMENT_SET_NO = 999
REV_AT_EPOCH   = 49864
BSTAR          = .2609E-3
MEAN_MOTION_DOT = .1368E-4
MEAN_MOTION_DDOT = 0

CCSDS_OMM_VERS = 2.0
CREATION_DATE  = 
ORIGINATOR     = 

OBJECT_NAME    = SL-8 R/B
OBJECT_ID      = 1992-008B
CENTER_NAME    = EARTH
REF_FRAME      = TEME
TIME_SYSTEM    = UTC
MEAN_ELEMENT_THEORY = SGP/SGP4

EPOCH          = 2026-03-25T17:01:41.760768
MEAN_MOTION    = 13.75969581
ECCENTRICITY   = .0035922
INCLINATION    = 82.9225
RA_OF_ASC_NODE = 255.8579
ARG_OF_PERICENTER = 90.0905
MEAN_ANOMALY   = 281.3233

EPHEMERIS_TYPE = 0
CLASSIFICATION_TYPE = U
NORAD_CAT_ID   = 21876
ELEMENT_SET_NO = 999
REV_AT_EPOCH   = 71162
BSTAR          = -.45927E-5
MEAN_MOTION_DOT = .11E-6
MEAN_MOTION_DDOT = 0

CCSDS_OMM_VERS = 2.0
CREATION_DATE  = 
ORIGINATOR     = 

OBJECT_NAME    = SL-8 R/B
OBJECT_ID      = 1992-020B
CENTER_NAME    = EARTH
REF_FRAME      = TEME
TIME_SYSTEM    = UTC
MEAN_ELEMENT_THEORY = SGP/SGP4

EPOCH          = 2026-03-25T18:47:54.077856
MEAN_MOTION    = 13.75550435
ECCENTRICITY   = .0027668
INCLINATION    = 82.9310
RA_OF_ASC_NODE = 141.8130
ARG_OF_PERICENTER = 251.7247
MEAN_ANOMALY   = 246.9963

EPHEMERIS_TYPE = 0
CLASSIFICATION_TYPE = U
NORAD_CAT_ID   = 21938
ELEMENT_SET_NO = 999
REV_AT_EPOCH   = 70334
BSTAR          = .12189E-4
MEAN_MOTION_DOT = .27E-6
MEAN_MOTION_DDOT = 0

CCSDS_OMM_VERS = 2.0
CREATION_DATE  = 
ORIGINATOR     = 

OBJECT_NAME    = USA 81
OBJECT_ID      = 1992-023A
CENTER_NAME    = EARTH
REF_FRAME      = TEME
TIME_SYSTEM    = UTC
MEAN_ELEMENT_THEORY = SGP/SGP4

EPOCH          = 2026-03-25T19:06:06.590304
MEAN_MOTION    = 14.32372997
ECCENTRICITY   = .0001921
INCLINATION    = 85.0053
RA_OF_ASC_NODE = 122.1468
ARG_OF_PERICENTER = 68.4965
MEAN_ANOMALY   = 291.6432

EPHEMERIS_TYPE = 0
CLASSIFICATION_TYPE = U
NORAD_CAT_ID   = 21949
ELEMENT_SET_NO = 999
REV_AT_EPOCH   = 9709
BSTAR          = .52529E-4
MEAN_MOTION_DOT = .162E-5
MEAN_MOTION_DDOT = 0

CCSDS_OMM_VERS = 2.0
CREATION_DATE  = 
ORIGINATOR     = 

OBJECT_NAME    = COSMOS 2219
OBJECT_ID      = 1992-076A
CENTER_NAME    = EARTH
REF_FRAME      = TEME
TIME_SYSTEM    = UTC
MEAN_ELEMENT_THEORY = SGP/SGP4

EPOCH          = 2026-03-25T17:16:48.299808
MEAN_MOTION    = 14.14091895
ECCENTRICITY   = .0018065
INCLINATION    = 71.0630
RA_OF_ASC_NODE = 344.5611
ARG_OF_PERICENTER = 183.8590
MEAN_ANOMALY   = 176.2397

EPHEMERIS_TYPE = 0
CLASSIFICATION_TYPE = U
NORAD_CAT_ID   = 22219
ELEMENT_SET_NO = 999
REV_AT_EPOCH   = 72064
BSTAR          = -.90875E-4
MEAN_MOTION_DOT = -.22E-5
MEAN_MOTION_DDOT = 0

CCSDS_OMM_VERS = 2.0
CREATION_DATE  = 
ORIGINATOR     = 

OBJECT_NAME    = SL-16 R/B
OBJECT_ID      = 1992-076B
CENTER_NAME    = EARTH
REF_FRAME      = TEME
TIME_SYSTEM    = UTC
MEAN_ELEMENT_THEORY = SGP/SGP4

EPOCH          = 2026-03-25T12:01:46.747200
MEAN_MOTION    = 14.16863713
ECCENTRICITY   = .00106428
INCLINATION    = 71.0003
RA_OF_ASC_NODE = 155.0699
ARG_OF_PERICENTER = 66.7709
MEAN_ANOMALY   = 305.0722

EPHEMERIS_TYPE = 0
CLASSIFICATION_TYPE = U
NORAD_CAT_ID   = 22220
ELEMENT_SET_NO = 999
REV_AT_EPOCH   = 72407
BSTAR          = .62586911E-4
MEAN_MOTION_DOT = .78E-6
MEAN_MOTION_DDOT = 0

CCSDS_OMM_VERS = 2.0
CREATION_DATE  = 
ORIGINATOR     = 

OBJECT_NAME    = COSMOS 2221
OBJECT_ID      = 1992-080A
CENTER_NAME    = EARTH
REF_FRAME      = TEME
TIME_SYSTEM    = UTC
MEAN_ELEMENT_THEORY = SGP/SGP4

EPOCH          = 2026-03-25T18:06:35.536608
MEAN_MOTION    = 14.96263975
ECCENTRICITY   = .0015343
INCLINATION    = 82.5007
RA_OF_ASC_NODE = 263.6876
ARG_OF_PERICENTER = 134.9103
MEAN_ANOMALY   = 225.3367

EPHEMERIS_TYPE = 0
CLASSIFICATION_TYPE = U
NORAD_CAT_ID   = 22236
ELEMENT_SET_NO = 999
REV_AT_EPOCH   = 78319
BSTAR          = .18215E-3
MEAN_MOTION_DOT = .2086E-4
MEAN_MOTION_DDOT = 0

CCSDS_OMM_VERS = 2.0
CREATION_DATE  = 
ORIGINATOR     = 

OBJECT_NAME    = SL-16 R/B
OBJECT_ID      = 1992-093B
CENTER_NAME    = EARTH
REF_FRAME      = TEME
TIME_SYSTEM    = UTC
MEAN_ELEMENT_THEORY = SGP/SGP4

EPOCH          = 2026-03-25T10:16:42.623904
MEAN_MOTION    = 14.15452517
ECCENTRICITY   = .00063899
INCLINATION    = 71.0234
RA_OF_ASC_NODE = 331.2290
ARG_OF_PERICENTER = 278.2176
MEAN_ANOMALY   = 81.8222

EPHEMERIS_TYPE = 0
CLASSIFICATION_TYPE = U
NORAD_CAT_ID   = 22285
ELEMENT_SET_NO = 999
REV_AT_EPOCH   = 71538
BSTAR          = .18634363E-3
MEAN_MOTION_DOT = .316E-5
MEAN_MOTION_DDOT = 0

CCSDS_OMM_VERS = 2.0
CREATION_DATE  = 
ORIGINATOR     = 

OBJECT_NAME    = COSMOS 2228
OBJECT_ID      = 1992-094A
CENTER_NAME    = EARTH
REF_FRAME      = TEME
TIME_SYSTEM    = UTC
MEAN_ELEMENT_THEORY = SGP/SGP4

EPOCH          = 2026-03-25T19:50:56.318208
MEAN_MOTION    = 14.97269488
ECCENTRICITY   = .0016695
INCLINATION    = 82.5182
RA_OF_ASC_NODE = 221.8586
ARG_OF_PERICENTER = 245.5329
MEAN_ANOMALY   = 114.4152

EPHEMERIS_TYPE = 0
CLASSIFICATION_TYPE = U
NORAD_CAT_ID   = 22286
ELEMENT_SET_NO = 999
REV_AT_EPOCH   = 77847
BSTAR          = .17573E-3
MEAN_MOTION_DOT = .2067E-4
MEAN_MOTION_DDOT = 0

CCSDS_OMM_VERS = 2.0
CREATION_DATE  = 
ORIGINATOR     = 

OBJECT_NAME    = SL-16 R/B
OBJECT_ID      = 1993-016B
CENTER_NAME    = EARTH
REF_FRAME      = TEME
TIME_SYSTEM    = UTC
MEAN_ELEMENT_THEORY = SGP/SGP4

EPOCH          = 2026-03-25T12:58:55.338528
MEAN_MOTION    = 14.15305605
ECCENTRICITY   = .00123475
INCLINATION    = 71.0079
RA_OF_ASC_NODE = 181.8912
ARG_OF_PERICENTER = 293.6094
MEAN_ANOMALY   = 66.3732

EPHEMERIS_TYPE = 0
CLASSIFICATION_TYPE = U
NORAD_CAT_ID   = 22566
ELEMENT_SET_NO = 999
REV_AT_EPOCH   = 70441
BSTAR          = -.59640233E-4
MEAN_MOTION_DOT = -.164E-5
MEAN_MOTION_DDOT = 0

